CCSDS_OMM_VERS = 2.0
CREATION_DATE  = 
ORIGINATOR     = 

OBJECT_NAME    = SL-4 R/B
OBJECT_ID      = 2014-021B
CENTER_NAME    = EARTH
REF_FRAME      = TEME
TIME_SYSTEM    = UTC
MEAN_ELEMENT_THEORY = SGP/SGP4

EPOCH          = 2025-12-10T14:23:39.481728
MEAN_MOTION    = 15.36586652
ECCENTRICITY   = .0101948
INCLINATION    = 51.6076
RA_OF_ASC_NODE = 50.9933
ARG_OF_PERICENTER = 138.4788
MEAN_ANOMALY   = 222.3996

EPHEMERIS_TYPE = 0
CLASSIFICATION_TYPE = U
NORAD_CAT_ID   = 39679
ELEMENT_SET_NO = 999
REV_AT_EPOCH   = 64256
BSTAR          = .45371E-3
MEAN_MOTION_DOT = .19218E-3
MEAN_MOTION_DDOT = 0

CCSDS_OMM_VERS = 2.0
CREATION_DATE  = 
ORIGINATOR     = 

OBJECT_NAME    = ALOS-2
OBJECT_ID      = 2014-029A
CENTER_NAME    = EARTH
REF_FRAME      = TEME
TIME_SYSTEM    = UTC
MEAN_ELEMENT_THEORY = SGP/SGP4

EPOCH          = 2025-12-10T15:30:49.837824
MEAN_MOTION    = 14.79468531
ECCENTRICITY   = .00015183
INCLINATION    = 97.9227
RA_OF_ASC_NODE = 79.5227
ARG_OF_PERICENTER = 98.8561
MEAN_ANOMALY   = 261.2822

EPHEMERIS_TYPE = 0
CLASSIFICATION_TYPE = U
NORAD_CAT_ID   = 39766
ELEMENT_SET_NO = 999
REV_AT_EPOCH   = 62370
BSTAR          = .40295078E-3
MEAN_MOTION_DOT = .2959E-4
MEAN_MOTION_DDOT = 0

CCSDS_OMM_VERS = 2.0
CREATION_DATE  = 
ORIGINATOR     = 

OBJECT_NAME    = YAOGAN-29
OBJECT_ID      = 2015-069A
CENTER_NAME    = EARTH
REF_FRAME      = TEME
TIME_SYSTEM    = UTC
MEAN_ELEMENT_THEORY = SGP/SGP4

EPOCH          = 2025-12-10T23:56:43.706112
MEAN_MOTION    = 14.82877438
ECCENTRICITY   = .00003082
INCLINATION    = 98.0220
RA_OF_ASC_NODE = 8.1633
ARG_OF_PERICENTER = 342.1104
MEAN_ANOMALY   = 18.0099

EPHEMERIS_TYPE = 0
CLASSIFICATION_TYPE = U
NORAD_CAT_ID   = 41038
ELEMENT_SET_NO = 999
REV_AT_EPOCH   = 54273
BSTAR          = .2447782E-4
MEAN_MOTION_DOT = .144E-5
MEAN_MOTION_DDOT = 0

CCSDS_OMM_VERS = 2.0
CREATION_DATE  = 
ORIGINATOR     = 

OBJECT_NAME    = ASTRO-H (HITOMI)
OBJECT_ID      = 2016-012A
CENTER_NAME    = EARTH
REF_FRAME      = TEME
TIME_SYSTEM    = UTC
MEAN_ELEMENT_THEORY = SGP/SGP4

EPOCH          = 2025-12-10T21:42:39.202560
MEAN_MOTION    = 15.09334128
ECCENTRICITY   = .00095422
INCLINATION    = 30.9983
RA_OF_ASC_NODE = 209.2036
ARG_OF_PERICENTER = 160.5702
MEAN_ANOMALY   = 199.5301

EPHEMERIS_TYPE = 0
CLASSIFICATION_TYPE = U
NORAD_CAT_ID   = 41337
ELEMENT_SET_NO = 999
REV_AT_EPOCH   = 53880
BSTAR          = .28027332E-3
MEAN_MOTION_DOT = .468E-4
MEAN_MOTION_DDOT = 0

CCSDS_OMM_VERS = 2.0
CREATION_DATE  = 
ORIGINATOR     = 

OBJECT_NAME    = HXMT (HUIYAN)
OBJECT_ID      = 2017-034A
CENTER_NAME    = EARTH
REF_FRAME      = TEME
TIME_SYSTEM    = UTC
MEAN_ELEMENT_THEORY = SGP/SGP4

EPOCH          = 2025-12-10T22:42:39.407616
MEAN_MOTION    = 15.16215832
ECCENTRICITY   = .00317072
INCLINATION    = 43.0130
RA_OF_ASC_NODE = 149.5802
ARG_OF_PERICENTER = 31.7887
MEAN_ANOMALY   = 328.4867

EPHEMERIS_TYPE = 0
CLASSIFICATION_TYPE = U
NORAD_CAT_ID   = 42758
ELEMENT_SET_NO = 999
REV_AT_EPOCH   = 46906
BSTAR          = .24339857E-3
MEAN_MOTION_DOT = .4609E-4
MEAN_MOTION_DDOT = 0

CCSDS_OMM_VERS = 2.0
CREATION_DATE  = 
ORIGINATOR     = 

OBJECT_NAME    = CZ-2C R/B
OBJECT_ID      = 2018-054D
CENTER_NAME    = EARTH
REF_FRAME      = TEME
TIME_SYSTEM    = UTC
MEAN_ELEMENT_THEORY = SGP/SGP4

EPOCH          = 2025-12-10T21:29:05.198784
MEAN_MOTION    = 15.73585395
ECCENTRICITY   = .00156125
INCLINATION    = 35.1324
RA_OF_ASC_NODE = 193.4039
ARG_OF_PERICENTER = 124.5420
MEAN_ANOMALY   = 235.6789

EPHEMERIS_TYPE = 0
CLASSIFICATION_TYPE = U
NORAD_CAT_ID   = 43521
ELEMENT_SET_NO = 999
REV_AT_EPOCH   = 41476
BSTAR          = .90010478E-3
MEAN_MOTION_DOT = .133697E-2
MEAN_MOTION_DDOT = 0

CCSDS_OMM_VERS = 2.0
CREATION_DATE  = 
ORIGINATOR     = 

OBJECT_NAME    = SAOCOM 1A
OBJECT_ID      = 2018-076A
CENTER_NAME    = EARTH
REF_FRAME      = TEME
TIME_SYSTEM    = UTC
MEAN_ELEMENT_THEORY = SGP/SGP4

EPOCH          = 2025-12-10T23:37:09.585408
MEAN_MOTION    = 14.82153403
ECCENTRICITY   = .00014991
INCLINATION    = 97.8845
RA_OF_ASC_NODE = 169.4320
ARG_OF_PERICENTER = 80.2639
MEAN_ANOMALY   = 279.8744

EPHEMERIS_TYPE = 0
CLASSIFICATION_TYPE = U
NORAD_CAT_ID   = 43641
ELEMENT_SET_NO = 999
REV_AT_EPOCH   = 38822
BSTAR          = .67292203E-4
MEAN_MOTION_DOT = .484E-5
MEAN_MOTION_DDOT = 0

CCSDS_OMM_VERS = 2.0
CREATION_DATE  = 
ORIGINATOR     = 

OBJECT_NAME    = H-2A R/B
OBJECT_ID      = 2018-084L
CENTER_NAME    = EARTH
REF_FRAME      = TEME
TIME_SYSTEM    = UTC
MEAN_ELEMENT_THEORY = SGP/SGP4

EPOCH          = 2025-12-10T19:19:04.376928
MEAN_MOTION    = 15.37257618
ECCENTRICITY   = .00275148
INCLINATION    = 98.8780
RA_OF_ASC_NODE = 178.4828
ARG_OF_PERICENTER = 333.2079
MEAN_ANOMALY   = 26.7738

EPHEMERIS_TYPE = 0
CLASSIFICATION_TYPE = U
NORAD_CAT_ID   = 43682
ELEMENT_SET_NO = 999
REV_AT_EPOCH   = 39210
BSTAR          = .71357761E-3
MEAN_MOTION_DOT = .26329E-3
MEAN_MOTION_DDOT = 0

CCSDS_OMM_VERS = 2.0
CREATION_DATE  = 
ORIGINATOR     = 

OBJECT_NAME    = SAOCOM 1B
OBJECT_ID      = 2020-059A
CENTER_NAME    = EARTH
REF_FRAME      = TEME
TIME_SYSTEM    = UTC
MEAN_ELEMENT_THEORY = SGP/SGP4

EPOCH          = 2025-12-10T22:44:56.782752
MEAN_MOTION    = 14.82158997
ECCENTRICITY   = .00013315
INCLINATION    = 97.8841
RA_OF_ASC_NODE = 168.4968
ARG_OF_PERICENTER = 84.3732
MEAN_ANOMALY   = 275.7633

EPHEMERIS_TYPE = 0
CLASSIFICATION_TYPE = U
NORAD_CAT_ID   = 46265
ELEMENT_SET_NO = 999
REV_AT_EPOCH   = 28560
BSTAR          = .18730252E-3
MEAN_MOTION_DOT = .1439E-4
MEAN_MOTION_DDOT = 0

CCSDS_OMM_VERS = 2.0
CREATION_DATE  = 
ORIGINATOR     = 

OBJECT_NAME    = CSS (TIANHE)
OBJECT_ID      = 2021-035A
CENTER_NAME    = EARTH
REF_FRAME      = TEME
TIME_SYSTEM    = UTC
MEAN_ELEMENT_THEORY = SGP/SGP4

EPOCH          = 2025-12-10T20:34:09.975360
MEAN_MOTION    = 15.59054125
ECCENTRICITY   = .0008705
INCLINATION    = 41.4684
RA_OF_ASC_NODE = 28.1364
ARG_OF_PERICENTER = 14.9689
MEAN_ANOMALY   = 345.1405

EPHEMERIS_TYPE = 0
CLASSIFICATION_TYPE = U
NORAD_CAT_ID   = 48274
ELEMENT_SET_NO = 999
REV_AT_EPOCH   = 26373
BSTAR          = .42990708E-3
MEAN_MOTION_DOT = .3436E-3
MEAN_MOTION_DDOT = 0

CCSDS_OMM_VERS = 2.0
CREATION_DATE  = 
ORIGINATOR     = 

OBJECT_NAME    = COSMOS 2550
OBJECT_ID      = 2021-056A
CENTER_NAME    = EARTH
REF_FRAME      = TEME
TIME_SYSTEM    = UTC
MEAN_ELEMENT_THEORY = SGP/SGP4

EPOCH          = 2025-12-09T08:02:46.062240
MEAN_MOTION    = 15.33838976
ECCENTRICITY   = .0008326
INCLINATION    = 67.1455
RA_OF_ASC_NODE = 314.2314
ARG_OF_PERICENTER = 269.7288
MEAN_ANOMALY   = 90.2912

EPHEMERIS_TYPE = 0
CLASSIFICATION_TYPE = U
NORAD_CAT_ID   = 48865
ELEMENT_SET_NO = 999
REV_AT_EPOCH   = 24960
BSTAR          = .63535E-5
MEAN_MOTION_DOT = .17E-6
MEAN_MOTION_DDOT = 0

CCSDS_OMM_VERS = 2.0
CREATION_DATE  = 
ORIGINATOR     = 

OBJECT_NAME    = CZ-2C R/B
OBJECT_ID      = 2022-058K
CENTER_NAME    = EARTH
REF_FRAME      = TEME
TIME_SYSTEM    = UTC
MEAN_ELEMENT_THEORY = SGP/SGP4

EPOCH          = 2025-12-10T05:25:12.252000
MEAN_MOTION    = 15.48324044
ECCENTRICITY   = .0045665
INCLINATION    = 50.1906
RA_OF_ASC_NODE = 56.3678
ARG_OF_PERICENTER = 188.0814
MEAN_ANOMALY   = 171.9424

EPHEMERIS_TYPE = 0
CLASSIFICATION_TYPE = U
NORAD_CAT_ID   = 52794
ELEMENT_SET_NO = 999
REV_AT_EPOCH   = 19624
BSTAR          = .63455E-3
MEAN_MOTION_DOT = .35321E-3
MEAN_MOTION_DDOT = 0

