SL-4 R/B                
1 39679U 14021B   25344.59976252  .00019218  00000+0  45371-3 0  9998
2 39679  51.6076  50.9933 0101948 138.4788 222.3996 15.36586652642565
ALOS-2                  
1 39766U 14029A   25344.64641016  .00002959  00000+0  40295-3 0  9990
2 39766  97.9227  79.5227 0001518  98.8561 261.2822 14.79468531623702
YAOGAN-29               
1 41038U 15069A   25344.99772808  .00000144  00000+0  24478-4 0  9992
2 41038  98.0220   8.1633 0000308 342.1104  18.0099 14.82877438542736
ASTRO-H (HITOMI)        
1 41337U 16012A   25344.90462040  .00004680  00000+0  28027-3 0  9990
2 41337  30.9983 209.2036 0009542 160.5702 199.5301 15.09334128538803
HXMT (HUIYAN)           
1 42758U 17034A   25344.94628944  .00004609  00000+0  24340-3 0  9999
2 42758  43.0130 149.5802 0031707  31.7887 328.4867 15.16215832469067
CZ-2C R/B               
1 43521U 18054D   25344.89519906  .00133697  00000+0  90010-3 0  9999
2 43521  35.1324 193.4039 0015612 124.5420 235.6789 15.73585395414760
SAOCOM 1A               
1 43641U 18076A   25344.98413872  .00000484  00000+0  67292-4 0  9995
2 43641  97.8845 169.4320 0001499  80.2639 279.8744 14.82153403388222
H-2A R/B                
1 43682U 18084L   25344.80491177  .00026329  00000+0  71358-3 0  9997
2 43682  98.8780 178.4828 0027514 333.2079  26.7738 15.37257618392102
SAOCOM 1B               
1 46265U 20059A   25344.94787943  .00001439  00000+0  18730-3 0  9996
2 46265  97.8841 168.4968 0001331  84.3732 275.7633 14.82158997285607
CSS (TIANHE)            
1 48274U 21035A   25344.85705990  .00034360  00000+0  42991-3 0  9990
2 48274  41.4684  28.1364 0008705  14.9689 345.1405 15.59054125263735
COSMOS 2550             
1 48865U 21056A   25343.33525535  .00000017  00000+0  63535-5 0  9997
2 48865  67.1455 314.2314 0008326 269.7288  90.2912 15.33838976249607
CZ-2C R/B               
1 52794U 22058K   25344.22583625  .00035321  00000+0  63455-3 0  9994
2 52794  50.1906  56.3678 0045665 188.0814 171.9424 15.48324044196246
